OCEANSAT-2              
1 35931U 09051A   26196.22209679 -.00000094  00000+0 -38872-4 0  9993
2 35931  98.2320 180.2745 0017342 153.3987 206.8073 13.99655981883255
WORLDVIEW-2 (WV-2)      
1 35946U 09055A   26196.20690544  .00000038  00000+0  26868-4 0  9994
2 35946  98.4756 269.2750 0005313 129.8113 230.3542 14.37906907879678
SMOS                    
1 36036U 09059A   26196.12690750  .00000125  00000+0  53846-4 0  9992
2 36036  98.4428  23.0524 0001152  96.2613 263.8707 14.39736031877470
YAOGAN-7                
1 36110U 09069A   26196.11608438  .00000204  00000+0  35471-4 0  9999
2 36110  98.0033  81.8060 0023505 311.5980  48.3216 14.78035480893757
TANDEM-X                
1 36605U 10030A   26188.47915494  .00000386  00000+0  21566-4 0  9992
2 36605  97.4457 195.8973 0001887  94.3019 265.8431 15.19154052889726
CARTOSAT-2B             
1 36795U 10035A   26196.15243750 -.00000123  00000+0 -96833-5 0  9991
2 36795  97.9942 246.5206 0012555  99.3986 260.8645 14.78615596863986
YAOGAN-10               
1 36834U 10038A   26196.24067194  .00001406  00000+0  16936-3 0  9991
2 36834  97.8967 219.4212 0001666  83.7186 342.7332 14.85431037861370
COSMO-SKYMED 4          
1 37216U 10060A   26196.19057975 -.00000083  00000+0 -38507-5 0  9993
2 37216  97.8885  19.3849 0001461  86.4251 273.7130 14.82147120848719
RESOURCESAT-2           
1 37387U 11015A   26196.17176347 -.00000006  00000+0  17618-4 0  9999
2 37387  98.7632 263.4184 0011548 171.1386 188.9997 14.21599508790156
HAIYANG-2A              
1 37781U 11043A   26196.22093740 -.00000151  00000+0 -11639-3 0  9997
2 37781  99.3395 198.2549 0002527  27.2768 332.8513 13.73342357750502
RASAT                   
1 37791U 11044D   26196.24911447  .00000414  00000+0  80180-4 0  9992
2 37791  98.0588 287.2179 0021924 102.6446 281.1354 14.68193548797303
SRMSAT                  
1 37841U 11058D   26196.20941029  .00000337  00000+0  39130-4 0  9991
2 37841  19.9709 249.8602 0011779 151.3491 247.8905 14.11581103761789
PLEIADES 1A             
1 38012U 11076F   26196.18830620 -.00000049  00000+0 -76596-6 0  9994
2 38012  98.1976 270.9135 0001669  80.2866   4.4145 14.58546279776071
ZIYUAN 1-02C (ZY 1-02C) 
1 38038U 11079A   26196.18651434  .00000051  00000+0  30816-4 0  9993
2 38038  98.4067 262.9082 0005611 214.8819 230.4293 14.38235189763231
ARIRANG-3 (KOMPSAT-3)   
1 38338U 12025B   26196.22587076  .00000184  00000+0  45831-4 0  9993
2 38338  98.1185 153.2048 0006221  38.8432 321.3216 14.62229025755447
EXACTVIEW-1 (ADS-1B)    
1 38709U 12039C   26196.18656875  .00000036  00000+0  35322-4 0  9999
2 38709  98.9805 314.2128 0011946  91.5586 268.6961 14.24992200726695
SPOT 6                  
1 38755U 12047A   26196.18756310  .00000091  00000+0  29471-4 0  9993
2 38755  98.2114 263.1667 0001085  85.9709 274.1614 14.58538812737139
PLEIADES 1B             
1 39019U 12068A   26196.20615889  .00000088  00000+0  28806-4 0  9995
2 39019  98.1947 270.8705 0001565  79.7859 280.3517 14.58534351724933
GOKTURK 2               
1 39030U 12073A   26196.15512753 -.00000151  00000+0 -15264-4 0  9991
2 39030  97.6805  32.1835 0000916  92.1506 267.9809 14.75566995728637
LANDSAT 8               
1 39084U 13008A   26196.17939197  .00000152  00000+0  43916-4 0  9990
2 39084  98.2290 265.9805 0001342  94.3554 265.7798 14.57111845701976
SARAL                   
1 39086U 13009A   26196.18232116  .00000031  00000+0  27324-4 0  9992
2 39086  98.5555  22.3955 0001701 166.5690 193.5540 14.32895801699612
GAOFEN-1                
1 39150U 13018A   26196.18662035  .00000313  00000+0  52053-4 0  9991
2 39150  97.9092 267.6837 0017065 171.1828 188.9684 14.76519290712370
VNREDSAT 1              
1 39160U 13021B   26196.16295059  .00000029  00000+0  13893-4 0  9995
2 39160  97.9069 248.5035 0001580  79.8367 280.3015 14.64883086704381
ARIRANG-5 (KOMPSAT-5)   
1 39227U 13042A   26196.16603321  .00000406  00000+0  33348-4 0  9993
2 39227  97.6203  22.4736 0005429  57.9631 302.2121 15.04495018708066
SKYSAT-A                
1 39418U 13066C   26196.09964841  .00001524  00000+0  89294-4 0  9993
2 39418  97.3805 244.6073 0020508 213.8194 146.1731 15.13115170692700
DUBAISAT-2              
1 39419U 13066D   26196.22898190  .00002647  00000+0  16496-3 0  9992
2 39419  97.4574 185.6438 0009365 303.3350  56.6983 15.10377683690620
GPM-CORE                
1 39574U 14009C   26196.17554963  .00003180  00000+0  72351-4 0  9999
2 39574  64.9690 214.3524 0010967 262.0342  97.9554 15.45042870702135
SENTINEL-1A             
1 39634U 14016A   26196.13890256  .00000193  00000+0  50635-4 0  9990
2 39634  98.1768 203.2637 0001430  86.6403 273.4961 14.59196274654098
KAZEOSAT 1              
1 39731U 14024A   26196.19215859 -.00000043  00000+0 -22727-6 0  9992
2 39731  98.3204 267.9408 0001218  83.1253 277.0076 14.42036986642599
ALOS-2                  
1 39766U 14029A   26196.00390608  .00000171  00000+0  29807-4 0  9995
2 39766  97.9235 292.7698 0001572  91.6542 268.4849 14.79471561655690
KAZEOSAT 2              
1 40010U 14033A   26196.18428451  .00000909  00000+0  11103-3 0  9999
2 40010  97.5390  34.3155 0007395 219.2492 140.8189 14.85502508653119
